*******************************************************************************
Ephemeris / WWW_USER Mon Mar 24 06:40:47 2025 Pasadena, USA      / Horizons    
*******************************************************************************
Target body name: (2017 SN16)                     {source: JPL#20}
Center body name: Earth (399)                     {source: DE441}
Center-site name: Gemini South Obs., Cerro Pachon
*******************************************************************************
Start time      : A.D. 2018-Sep-03 22:37:00.0000 UT      
Stop  time      : A.D. 2018-Sep-04 10:46:00.0000 UT      
Step-size       : 1 minutes
*******************************************************************************
Target pole/equ : undefined
Target radii    : undefined                                                    
Center geodetic : 289.2634, -30.2406227, 2.71233  {E-lon(deg),Lat(deg),Alt(km)}
Center cylindric: 289.2634,5517.21435,-3194.81213 {E-lon(deg),Dxy(km),Dz(km)}
Center pole/equ : ITRF93                          {East-longitude positive}
Center radii    : 6378.137, 6378.137, 6356.752 km {Equator_a, b, pole_c}       
Target primary  : Sun
Vis. interferer : MOON (R_eq= 1737.400) km        {source: DE441}
Rel. light bend : Sun                             {source: DE441}
Rel. lght bnd GM: 1.3271E+11 km^3/s^2                                          
Small-body perts: Yes                             {source: SB441-N16}
Atmos refraction: NO (AIRLESS)
RA format       : HMS
Time format     : CAL 
Calendar mode   : Mixed Julian/Gregorian
RTS-only print  : NO       
EOP file        : eop.250321.p250617                                           
EOP coverage    : DATA-BASED 1962-JAN-20 TO 2025-MAR-21. PREDICTS-> 2025-JUN-16
Units conversion: 1 au= 149597870.700 km, c= 299792.458 km/s, 1 day= 86400.0 s 
Table cut-offs 1: Elevation (-90.0deg=NO ),Airmass (>38.000=NO), Daylight (YES)
Table cut-offs 2: Solar elongation (  0.0,180.0=NO ),Local Hour Angle( 0.0=NO )
Table cut-offs 3: RA/DEC angular rate (     0.0=NO )                           
*******************************************************************************
Initial IAU76/J2000 heliocentric ecliptic osculating elements (au, days, deg.):
  EPOCH=  2458305.5 ! 2018-Jul-06.00 (TDB)         Residual RMS= .23751        
   EC= .1454884975659386   QR= .8682464985612274   TP= 2458145.5722438502      
   OM= 2.759719470837934   W=  137.1017088998531   IN= 13.38264682844635       
  Equivalent ICRF heliocentric cartesian coordinates (au, au/d):
   X= 5.756755401261899E-01  Y=-7.953424559592890E-01  Z=-6.031561894536019E-01
  VX= 1.332076113263395E-02 VY= 5.454663564585547E-03 VZ= 3.896229736425836E-03
Asteroid physical parameters (km, seconds, rotational period in hours):        
   GM= n.a.                RAD= n.a.               ROTPER= n.a.                
   H= 23.34                G= .150                 B-V= n.a.                   
                           ALBEDO= n.a.            STYP= n.a.                  
*******************************************************************************
 Date__(UT)__HR:MN     R.A._________(ICRF)_________DEC
******************************************************
$$SOE
 2018-Sep-04 02:43     01 16 13.105513 -24 31 33.60034
 2018-Sep-04 02:44     01 16 12.959970 -24 31 32.96559
 2018-Sep-04 02:45     01 16 12.814363 -24 31 32.33066
 2018-Sep-04 02:46     01 16 12.668692 -24 31 31.69554
 2018-Sep-04 02:47     01 16 12.522959 -24 31 31.06024
 2018-Sep-04 02:48     01 16 12.377161 -24 31 30.42475
 2018-Sep-04 02:49     01 16 12.231301 -24 31 29.78906
 2018-Sep-04 02:50     01 16 12.085378 -24 31 29.15319
 2018-Sep-04 02:51     01 16 11.939391 -24 31 28.51712
 2018-Sep-04 02:52     01 16 11.793342 -24 31 27.88086
 2018-Sep-04 02:53     01 16 11.647230 -24 31 27.24441
 2018-Sep-04 02:54     01 16 11.501056 -24 31 26.60776
 2018-Sep-04 02:55     01 16 11.354818 -24 31 25.97091
 2018-Sep-04 02:56     01 16 11.208519 -24 31 25.33386
 2018-Sep-04 02:57     01 16 11.062158 -24 31 24.69661
 2018-Sep-04 02:58     01 16 10.915734 -24 31 24.05916
 2018-Sep-04 02:59     01 16 10.769248 -24 31 23.42150
 2018-Sep-04 03:00     01 16 10.622701 -24 31 22.78364
 2018-Sep-04 03:01     01 16 10.476091 -24 31 22.14558
 2018-Sep-04 03:02     01 16 10.329420 -24 31 21.50730
 2018-Sep-04 03:03     01 16 10.182688 -24 31 20.86882
 2018-Sep-04 03:04     01 16 10.035894 -24 31 20.23012
 2018-Sep-04 03:05     01 16 09.889039 -24 31 19.59122
 2018-Sep-04 03:06     01 16 09.742123 -24 31 18.95210
 2018-Sep-04 03:07     01 16 09.595147 -24 31 18.31277
 2018-Sep-04 03:08     01 16 09.448109 -24 31 17.67322
 2018-Sep-04 03:09     01 16 09.301010 -24 31 17.03345
 2018-Sep-04 03:10     01 16 09.153851 -24 31 16.39346
 2018-Sep-04 03:11     01 16 09.006632 -24 31 15.75326
 2018-Sep-04 03:12     01 16 08.859352 -24 31 15.11283
 2018-Sep-04 03:13     01 16 08.712013 -24 31 14.47218
 2018-Sep-04 03:14     01 16 08.564613 -24 31 13.83131
 2018-Sep-04 03:15     01 16 08.417153 -24 31 13.19021
 2018-Sep-04 03:16     01 16 08.269634 -24 31 12.54889
 2018-Sep-04 03:17     01 16 08.122055 -24 31 11.90733
 2018-Sep-04 03:18     01 16 07.974417 -24 31 11.26555
 2018-Sep-04 03:19     01 16 07.826720 -24 31 10.62354
 2018-Sep-04 03:20     01 16 07.678963 -24 31 09.98129
 2018-Sep-04 03:21     01 16 07.531147 -24 31 09.33881
 2018-Sep-04 03:22     01 16 07.383273 -24 31 08.69610
 2018-Sep-04 03:23     01 16 07.235340 -24 31 08.05315
 2018-Sep-04 03:24     01 16 07.087348 -24 31 07.40997
 2018-Sep-04 03:25     01 16 06.939298 -24 31 06.76654
 2018-Sep-04 03:26     01 16 06.791190 -24 31 06.12288
 2018-Sep-04 03:27     01 16 06.643024 -24 31 05.47897
 2018-Sep-04 03:28     01 16 06.494800 -24 31 04.83482
 2018-Sep-04 03:29     01 16 06.346518 -24 31 04.19043
 2018-Sep-04 03:30     01 16 06.198178 -24 31 03.54580
 2018-Sep-04 03:31     01 16 06.049781 -24 31 02.90091
 2018-Sep-04 03:32     01 16 05.901327 -24 31 02.25578
 2018-Sep-04 03:33     01 16 05.752816 -24 31 01.61041
 2018-Sep-04 03:34     01 16 05.604248 -24 31 00.96478
 2018-Sep-04 03:35     01 16 05.455623 -24 31 00.31890
 2018-Sep-04 03:36     01 16 05.306941 -24 30 59.67277
 2018-Sep-04 03:37     01 16 05.158203 -24 30 59.02638
 2018-Sep-04 03:38     01 16 05.009409 -24 30 58.37974
 2018-Sep-04 03:39     01 16 04.860558 -24 30 57.73284
 2018-Sep-04 03:40     01 16 04.711651 -24 30 57.08569
 2018-Sep-04 03:41     01 16 04.562689 -24 30 56.43828
 2018-Sep-04 03:42     01 16 04.413671 -24 30 55.79060
 2018-Sep-04 03:43     01 16 04.264598 -24 30 55.14267
 2018-Sep-04 03:44     01 16 04.115469 -24 30 54.49447
 2018-Sep-04 03:45     01 16 03.966285 -24 30 53.84601
 2018-Sep-04 03:46     01 16 03.817047 -24 30 53.19729
 2018-Sep-04 03:47     01 16 03.667753 -24 30 52.54830
 2018-Sep-04 03:48     01 16 03.518405 -24 30 51.89904
 2018-Sep-04 03:49     01 16 03.369002 -24 30 51.24951
 2018-Sep-04 03:50     01 16 03.219546 -24 30 50.59971
 2018-Sep-04 03:51     01 16 03.070035 -24 30 49.94965
 2018-Sep-04 03:52     01 16 02.920470 -24 30 49.29931
 2018-Sep-04 03:53     01 16 02.770852 -24 30 48.64870
 2018-Sep-04 03:54     01 16 02.621180 -24 30 47.99781
 2018-Sep-04 03:55     01 16 02.471454 -24 30 47.34665
 2018-Sep-04 03:56     01 16 02.321676 -24 30 46.69521
 2018-Sep-04 03:57     01 16 02.171844 -24 30 46.04349
 2018-Sep-04 03:58     01 16 02.021960 -24 30 45.39150
 2018-Sep-04 03:59     01 16 01.872023 -24 30 44.73922
 2018-Sep-04 04:00     01 16 01.722034 -24 30 44.08667
 2018-Sep-04 04:01     01 16 01.571992 -24 30 43.43383
 2018-Sep-04 04:02     01 16 01.421899 -24 30 42.78070
 2018-Sep-04 04:03     01 16 01.271753 -24 30 42.12729
 2018-Sep-04 04:04     01 16 01.121556 -24 30 41.47360
 2018-Sep-04 04:05     01 16 00.971307 -24 30 40.81962
 2018-Sep-04 04:06     01 16 00.821007 -24 30 40.16535
 2018-Sep-04 04:07     01 16 00.670656 -24 30 39.51079
 2018-Sep-04 04:08     01 16 00.520254 -24 30 38.85595
 2018-Sep-04 04:09     01 16 00.369802 -24 30 38.20081
 2018-Sep-04 04:10     01 16 00.219299 -24 30 37.54537
 2018-Sep-04 04:11     01 16 00.068745 -24 30 36.88965
 2018-Sep-04 04:12     01 15 59.918141 -24 30 36.23363
 2018-Sep-04 04:13     01 15 59.767488 -24 30 35.57731
 2018-Sep-04 04:14     01 15 59.616784 -24 30 34.92070
 2018-Sep-04 04:15     01 15 59.466031 -24 30 34.26378
 2018-Sep-04 04:16     01 15 59.315229 -24 30 33.60657
 2018-Sep-04 04:17     01 15 59.164378 -24 30 32.94906
 2018-Sep-04 04:18     01 15 59.013478 -24 30 32.29125
 2018-Sep-04 04:19     01 15 58.862529 -24 30 31.63314
 2018-Sep-04 04:20     01 15 58.711531 -24 30 30.97472
 2018-Sep-04 04:21     01 15 58.560485 -24 30 30.31600
 2018-Sep-04 04:22     01 15 58.409391 -24 30 29.65697
 2018-Sep-04 04:23     01 15 58.258249 -24 30 28.99764
 2018-Sep-04 04:24     01 15 58.107059 -24 30 28.33799
 2018-Sep-04 04:25     01 15 57.955822 -24 30 27.67804
 2018-Sep-04 04:26     01 15 57.804538 -24 30 27.01778
 2018-Sep-04 04:27     01 15 57.653206 -24 30 26.35721
 2018-Sep-04 04:28     01 15 57.501828 -24 30 25.69633
 2018-Sep-04 04:29     01 15 57.350403 -24 30 25.03514
 2018-Sep-04 04:30     01 15 57.198931 -24 30 24.37363
 2018-Sep-04 04:31     01 15 57.047413 -24 30 23.71181
 2018-Sep-04 04:32     01 15 56.895849 -24 30 23.04967
 2018-Sep-04 04:33     01 15 56.744240 -24 30 22.38722
 2018-Sep-04 04:34     01 15 56.592584 -24 30 21.72444
 2018-Sep-04 04:35     01 15 56.440884 -24 30 21.06135
 2018-Sep-04 04:36     01 15 56.289138 -24 30 20.39794
 2018-Sep-04 04:37     01 15 56.137347 -24 30 19.73421
 2018-Sep-04 04:38     01 15 55.985511 -24 30 19.07016
 2018-Sep-04 04:39     01 15 55.833631 -24 30 18.40579
 2018-Sep-04 04:40     01 15 55.681707 -24 30 17.74109
 2018-Sep-04 04:41     01 15 55.529738 -24 30 17.07607
 2018-Sep-04 04:42     01 15 55.377726 -24 30 16.41072
 2018-Sep-04 04:43     01 15 55.225670 -24 30 15.74505
 2018-Sep-04 04:44     01 15 55.073570 -24 30 15.07905
 2018-Sep-04 04:45     01 15 54.921428 -24 30 14.41272
